{
  "type": "FeatureCollection",
  "features": [
    {
      "type": "Feature",
      "properties": {
        "norad_id": 63772,
        "name": "BIOMASS",
        "group": "resource",
        "lat": 43.804009643572996,
        "lon": 161.12905001076865,
        "alt_km": 664.5586333097226,
        "timestamp": "2025-12-09T21:34:11.065020+00:00",
        "meta_object_name": "BIOMASS",
        "meta_object_id": "2025-090A",
        "meta_epoch": "2025-12-09T11:33:00.256608",
        "meta_mean_motion": 14.67534262,
        "meta_eccentricity": 0.00012046,
        "meta_inclination": 98.0699,
        "meta_ra_of_asc_node": 168.5387,
        "meta_arg_of_pericenter": 78.6099,
        "meta_mean_anomaly": 281.5241,
        "meta_ephemeris_type": 0,
        "meta_classification_type": "U",
        "meta_norad_cat_id": 63772,
        "meta_element_set_no": 999,
        "meta_rev_at_epoch": 3286,
        "meta_bstar": 0.00035298331,
        "meta_mean_motion_dot": 1.954e-05,
        "meta_mean_motion_ddot": 0,
        "tle_line1": "1 63772U 25090A   25343.48125297  .00001954  00000+0  35298-3 0  9994",
        "tle_line2": "2 63772  98.0699 168.5387 0001204  78.6099 281.5241 14.67534262 32864"
      },
      "geometry": {
        "type": "Point",
        "coordinates": [
          161.12905001076865,
          43.804009643572996
        ]
      }
    },
    {
      "type": "Feature",
      "properties": {
        "norad_id": 64694,
        "name": "GOSAT-GW (IBUKI GW)",
        "group": "resource",
        "lat": -71.94116236124749,
        "lon": 73.76486749270214,
        "alt_km": 677.1803472265074,
        "timestamp": "2025-12-09T21:34:11.065030+00:00",
        "meta_object_name": "GOSAT-GW (IBUKI GW)",
        "meta_object_id": "2025-141A",
        "meta_epoch": "2025-12-08T18:14:08.043648",
        "meta_mean_motion": 14.67565462,
        "meta_eccentricity": 0.00014946,
        "meta_inclination": 98.0423,
        "meta_ra_of_asc_node": 278.345,
        "meta_arg_of_pericenter": 82.5316,
        "meta_mean_anomaly": 277.6059,
        "meta_ephemeris_type": 0,
        "meta_classification_type": "U",
        "meta_norad_cat_id": 64694,
        "meta_element_set_no": 999,
        "meta_rev_at_epoch": 2391,
        "meta_bstar": 0.00038232231,
        "meta_mean_motion_dot": 2.122e-05,
        "meta_mean_motion_ddot": 0,
        "tle_line1": "1 64694U 25141A   25342.75981532  .00002122  00000+0  38232-3 0  9995",
        "tle_line2": "2 64694  98.0423 278.3450 0001494  82.5316 277.6059 14.67565462 23916"
      },
      "geometry": {
        "type": "Point",
        "coordinates": [
          73.76486749270214,
          -71.94116236124749
        ]
      }
    },
    {
      "type": "Feature",
      "properties": {
        "norad_id": 64876,
        "name": "IONOSFERA-M 3",
        "group": "resource",
        "lat": 6.919309451882856,
        "lon": -55.20425865689326,
        "alt_km": 821.5573039871288,
        "timestamp": "2025-12-09T21:34:11.065040+00:00",
        "meta_object_name": "IONOSFERA-M 3",
        "meta_object_id": "2025-155A",
        "meta_epoch": "2025-12-09T14:46:45.755904",
        "meta_mean_motion": 14.21439814,
        "meta_eccentricity": 0.0002308,
        "meta_inclination": 98.5778,
        "meta_ra_of_asc_node": 305.5704,
        "meta_arg_of_pericenter": 64.9514,
        "meta_mean_anomaly": 295.1903,
        "meta_ephemeris_type": 0,
        "meta_classification_type": "U",
        "meta_norad_cat_id": 64876,
        "meta_element_set_no": 999,
        "meta_rev_at_epoch": 1947,
        "meta_bstar": 9.1225228e-05,
        "meta_mean_motion_dot": 1.57e-06,
        "meta_mean_motion_ddot": 0,
        "tle_line1": "1 64876U 25155A   25343.61580736  .00000157  00000+0  91225-4 0  9997",
        "tle_line2": "2 64876  98.5778 305.5704 0002308  64.9514 295.1903 14.21439814 19470"
      },
      "geometry": {
        "type": "Point",
        "coordinates": [
          -55.20425865689326,
          6.919309451882856
        ]
      }
    },
    {
      "type": "Feature",
      "properties": {
        "norad_id": 64877,
        "name": "IONOSFERA-M 4",
        "group": "resource",
        "lat": -7.82557382026776,
        "lon": 124.5762757036742,
        "alt_km": 825.0017779469072,
        "timestamp": "2025-12-09T21:34:11.065050+00:00",
        "meta_object_name": "IONOSFERA-M 4",
        "meta_object_id": "2025-155B",
        "meta_epoch": "2025-12-09T15:37:15.667392",
        "meta_mean_motion": 14.21440941,
        "meta_eccentricity": 0.0001667,
        "meta_inclination": 98.5777,
        "meta_ra_of_asc_node": 305.5241,
        "meta_arg_of_pericenter": 66.529,
        "meta_mean_anomaly": 293.6062,
        "meta_ephemeris_type": 0,
        "meta_classification_type": "U",
        "meta_norad_cat_id": 64877,
        "meta_element_set_no": 999,
        "meta_rev_at_epoch": 1947,
        "meta_bstar": 9.6654053e-05,
        "meta_mean_motion_dot": 1.69e-06,
        "meta_mean_motion_ddot": 0,
        "tle_line1": "1 64877U 25155B   25343.65087578  .00000169  00000+0  96654-4 0  9992",
        "tle_line2": "2 64877  98.5777 305.5241 0001667  66.5290 293.6062 14.21440941 19474"
      },
      "geometry": {
        "type": "Point",
        "coordinates": [
          124.5762757036742,
          -7.82557382026776
        ]
      }
    },
    {
      "type": "Feature",
      "properties": {
        "norad_id": 64899,
        "name": "MICROCARB",
        "group": "resource",
        "lat": -5.719258717924,
        "lon": -121.51761356543135,
        "alt_km": 648.1723459527075,
        "timestamp": "2025-12-09T21:34:11.065060+00:00",
        "meta_object_name": "MICROCARB",
        "meta_object_id": "2025-156A",
        "meta_epoch": "2025-12-09T10:56:29.938848",
        "meta_mean_motion": 14.72049485,
        "meta_eccentricity": 0.00169337,
        "meta_inclination": 98.0028,
        "meta_ra_of_asc_node": 58.854,
        "meta_arg_of_pericenter": 154.8146,
        "meta_mean_anomaly": 205.389,
        "meta_ephemeris_type": 0,
        "meta_classification_type": "U",
        "meta_norad_cat_id": 64899,
        "meta_element_set_no": 999,
        "meta_rev_at_epoch": 2005,
        "meta_bstar": 0.00022635085,
        "meta_mean_motion_dot": 1.375e-05,
        "meta_mean_motion_ddot": 0,
        "tle_line1": "1 64899U 25156A   25343.45590207  .00001375  00000+0  22635-3 0  9990",
        "tle_line2": "2 64899  98.0028  58.8540 0016933 154.8146 205.3890 14.72049485 20054"
      },
      "geometry": {
        "type": "Point",
        "coordinates": [
          -121.51761356543135,
          -5.719258717924
        ]
      }
    },
    {
      "type": "Feature",
      "properties": {
        "norad_id": 64900,
        "name": "CO3D 3",
        "group": "resource",
        "lat": 80.75209907021137,
        "lon": -66.37906097747315,
        "alt_km": 496.84508524068406,
        "timestamp": "2025-12-09T21:34:11.065069+00:00",
        "meta_object_name": "CO3D 3",
        "meta_object_id": "2025-156B",
        "meta_epoch": "2025-12-09T14:49:56.444160",
        "meta_mean_motion": 15.2021283,
        "meta_eccentricity": 0.00013691,
        "meta_inclination": 97.434,
        "meta_ra_of_asc_node": 60.0298,
        "meta_arg_of_pericenter": 105.5866,
        "meta_mean_anomaly": 254.5521,
        "meta_ephemeris_type": 0,
        "meta_classification_type": "U",
        "meta_norad_cat_id": 64900,
        "meta_element_set_no": 999,
        "meta_rev_at_epoch": 2073,
        "meta_bstar": 0.00043107505,
        "meta_mean_motion_dot": 9.279e-05,
        "meta_mean_motion_ddot": 0,
        "tle_line1": "1 64900U 25156B   25343.61801440  .00009279  00000+0  43108-3 0  9994",
        "tle_line2": "2 64900  97.4340  60.0298 0001369 105.5866 254.5521 15.20212830 20733"
      },
      "geometry": {
        "type": "Point",
        "coordinates": [
          -66.37906097747315,
          80.75209907021137
        ]
      }
    },
    {
      "type": "Feature",
      "properties": {
        "norad_id": 64901,
        "name": "CO3D 4",
        "group": "resource",
        "lat": 81.22550548228952,
        "lon": -61.92241622279674,
        "alt_km": 498.10050839205996,
        "timestamp": "2025-12-09T21:34:11.065079+00:00",
        "meta_object_name": "CO3D 4",
        "meta_object_id": "2025-156C",
        "meta_epoch": "2025-12-09T14:50:09.307392",
        "meta_mean_motion": 15.20216193,
        "meta_eccentricity": 0.00010931,
        "meta_inclination": 97.4339,
        "meta_ra_of_asc_node": 60.0302,
        "meta_arg_of_pericenter": 213.5046,
        "meta_mean_anomaly": 146.6121,
        "meta_ephemeris_type": 0,
        "meta_classification_type": "U",
        "meta_norad_cat_id": 64901,
        "meta_element_set_no": 999,
        "meta_rev_at_epoch": 2073,
        "meta_bstar": 0.00043741815,
        "meta_mean_motion_dot": 9.417e-05,
        "meta_mean_motion_ddot": 0,
        "tle_line1": "1 64901U 25156C   25343.61816328  .00009417  00000+0  43742-3 0  9994",
        "tle_line2": "2 64901  97.4339  60.0302 0001093 213.5046 146.6121 15.20216193 20735"
      },
      "geometry": {
        "type": "Point",
        "coordinates": [
          -61.92241622279674,
          81.22550548228952
        ]
      }
    }
  ]
}